{
    "links": {
        "self": "http://www.neowsapp.com/rest/v1/neo/3840751?api_key=iIulBulltgU6a56xZRHN4H3l9WmuAYTsLGpBGhQ2"
    },
    "id": "3840751",
    "neo_reference_id": "3840751",
    "name": "(2019 FX2)",
    "designation": "2019 FX2",
    "nasa_jpl_url": "http://ssd.jpl.nasa.gov/sbdb.cgi?sstr=3840751",
    "absolute_magnitude_h": 25.5,
    "estimated_diameter": {
        "kilometers": {
            "estimated_diameter_min": 0.0211132445,
            "estimated_diameter_max": 0.0472106499
        },
        "meters": {
            "estimated_diameter_min": 21.113244479,
            "estimated_diameter_max": 47.2106498806
        },
        "miles": {
            "estimated_diameter_min": 0.0131191578,
            "estimated_diameter_max": 0.0293353287
        },
        "feet": {
            "estimated_diameter_min": 69.2691770164,
            "estimated_diameter_max": 154.8905885541
        }
    },
    "is_potentially_hazardous_asteroid": false,
    "close_approach_data": [
        {
            "close_approach_date": "2019-03-28",
            "close_approach_date_full": "2019-Mar-28 05:19",
            "epoch_date_close_approach": 1553750340000,
            "relative_velocity": {
                "kilometers_per_second": "6.8971876842",
                "kilometers_per_hour": "24829.8756629622",
                "miles_per_hour": "15428.3191306889"
            },
            "miss_distance": {
                "astronomical": "0.0740642089",
                "lunar": "28.8109772621",
                "kilometers": "11079847.894675043",
                "miles": "6884698.2340518734"
            },
            "orbiting_body": "Earth"
        }
    ],
    "orbital_data": {
        "orbit_id": "3",
        "orbit_determination_date": "2019-04-11 07:56:45",
        "first_observation_date": "2019-03-31",
        "last_observation_date": "2019-04-10",
        "data_arc_in_days": 10,
        "observations_used": 50,
        "orbit_uncertainty": "8",
        "minimum_orbit_intersection": ".0640607",
        "jupiter_tisserand_invariant": "3.238",
        "epoch_osculation": "2458577.5",
        "eccentricity": ".5723439241873417",
        "semi_major_axis": "2.466950452664339",
        "inclination": "1.251546622674304",
        "ascending_node_longitude": "277.6684689078308",
        "orbital_period": "1415.269239147812",
        "perihelion_distance": "1.055006349810692",
        "perihelion_argument": "256.8851411044122",
        "aphelion_distance": "3.878894555517986",
        "perihelion_time": "2458561.253114483842",
        "mean_anomaly": "4.132696891892254",
        "mean_motion": ".2543685611486686",
        "equinox": "J2000",
        "orbit_class": {
            "orbit_class_type": "AMO",
            "orbit_class_description": "Near-Earth asteroid orbits similar to that of 1221 Amor",
            "orbit_class_range": "1.017 AU < q (perihelion) < 1.3 AU"
        }
    },
    "is_sentry_object": false
}